NORAD_CAT_ID,OBJECT_NAME,OBJECT_TYPE,EPOCH,MEAN_MOTION,ECCENTRICITY,INCLINATION,RA_OF_ASC_NODE,ARG_OF_PERICENTER,MEAN_ANOMALY,BSTAR,MEAN_MOTION_DOT,MEAN_MOTION_DDOT,TLE_LINE0,TLE_LINE1,TLE_LINE2,SEMIMAJOR_AXIS,PERIOD,APOGEE,PERIGEE,DECAYED
55631.0,STARLINK-5558,PAYLOAD,2023-06-19 02:53:55,14.98330361,0.000387,69.9982,192.0263,268.0847,91.9869,1.9612e-05,1.41e-06,0.0,0 STARLINK-5558,1 55631U 23021D   23170.12078483  .00000141  00000-0  19612-4 0  9993,2 55631  69.9982 192.0263 0003870 268.0847  91.9869 14.98330361 19326,6950.192,96.107,574.746,569.367,0.0
55631.0,STARLINK-5558,PAYLOAD,2023-06-19 18:55:16,14.98330087,0.0003914,69.9981,190.3429,268.4604,91.6107,1.3995e-05,7.4e-07,0.0,0 STARLINK-5558,1 55631U 23021D   23170.78838474  .00000074  00000-0  13995-4 0  9992,2 55631  69.9981 190.3429 0003914 268.4604  91.6107 14.98330087 19422,6950.193,96.107,574.778,569.337,0.0
55631.0,STARLINK-5558,PAYLOAD,2023-06-20 01:19:48,14.98327656,0.0003917,69.998,189.6695,268.0817,91.9893,2.282e-05,1.79e-06,0.0,0 STARLINK-5558,1 55631U 23021D   23171.05542597  .00000179  00000-0  22820-4 0  9994,2 55631  69.9980 189.6695 0003917 268.0817  91.9893 14.98327656 19166,6950.2,96.107,574.788,569.343,0.0
55631.0,STARLINK-5558,PAYLOAD,2023-06-20 07:44:21,14.98328604,0.0003927,69.998,188.9962,268.0278,92.0431,1.6155e-05,1e-06,0.0,0 STARLINK-5558,1 55631U 23021D   23171.32246573  .00000100  00000-0  16155-4 0  9997,2 55631  69.9980 188.9962 0003927 268.0278  92.0431 14.98328604 19509,6950.197,96.107,574.792,569.333,0.0
55631.0,STARLINK-5558,PAYLOAD,2023-06-21 02:57:57,14.9833097,0.0003879,69.9982,186.9762,267.8921,92.1793,-8.4675e-06,-1.94e-06,0.0,0 STARLINK-5558,1 55631U 23021D   23172.12358472 -.00000194  00000-0 -84675-5 0  9996,2 55631  69.9982 186.9762 0003879 267.8921  92.1793 14.98330970 19326,6950.19,96.107,574.751,569.359,0.0
55631.0,STARLINK-5558,PAYLOAD,2023-06-21 10:58:37,14.98331484,0.0003869,69.9983,186.1347,267.9632,92.1084,6.1052e-06,-2e-07,0.0,0 STARLINK-5558,1 55631U 23021D   23172.45738370 -.00000020  00000-0  61052-5 0  9992,2 55631  69.9983 186.1347 0003869 267.9632  92.1084 14.98331484 19679,6950.188,96.107,574.742,569.364,0.0
55631.0,STARLINK-5558,PAYLOAD,2023-06-22 02:59:58,14.98329847,0.0003875,69.9983,184.4514,267.7178,92.3538,1.1875e-06,-7.9e-07,0.0,0 STARLINK-5558,1 55631U 23021D   23173.12498413 -.00000079  00000-0  11875-5 0  9990,2 55631  69.9983 184.4514 0003875 267.7178  92.3538 14.98329847 19470,6950.193,96.107,574.752,569.365,0.0
55631.0,STARLINK-5558,PAYLOAD,2023-06-23 11:02:39,14.98331199,0.0003908,69.9982,181.0852,267.058,93.0132,2.5296e-07,-9e-07,0.0,0 STARLINK-5558,1 55631U 23021D   23174.46018260 -.00000090  00000-0  25296-6 0  9992,2 55631  69.9982 181.0852 0003908 267.0580  93.0132 14.98331199 19677,6950.189,96.107,574.77,569.338,0.0
55631.0,STARLINK-5558,PAYLOAD,2023-06-25 03:06:01,14.98328233,0.0003889,69.9981,176.877,267.4973,92.5741,-2.4611e-05,-3.87e-06,0.0,0 STARLINK-5558,1 55631U 23021D   23176.12918413 -.00000387  00000-0 -24611-4 0  9994,2 55631  69.9981 176.8770 0003889 267.4973  92.5741 14.98328233 19928,6950.198,96.107,574.766,569.36,0.0
55631.0,STARLINK-5558,PAYLOAD,2023-06-26 03:08:02,14.98330088,0.0003892,69.9981,174.3521,267.2797,92.7916,-6.9366e-06,-1.76e-06,0.0,0 STARLINK-5558,1 55631U 23021D   23177.13058243 -.00000176  00000-0 -69366-5 0  9995,2 55631  69.9981 174.3521 0003892 267.2797  92.7916 14.98330088 20076,6950.193,96.107,574.763,569.353,0.0
55631.0,STARLINK-5558,PAYLOAD,2023-06-27 09:34:35,14.98331925,0.000389,69.9982,171.1539,266.9553,93.1161,4.0805e-05,3.94e-06,0.0,0 STARLINK-5558,1 55631U 23021D   23178.39901907  .00000394  00000-0  40805-4 0  9994,2 55631  69.9982 171.1539 0003890 266.9553  93.1161 14.98331925 20264,6950.187,96.107,574.756,569.348,0.0
55631.0,STARLINK-5558,PAYLOAD,2023-06-28 09:36:36,14.98328125,0.0003833,69.9985,168.629,267.0066,93.0654,-1.5195e-05,-2.74e-06,0.0,0 STARLINK-5558,1 55631U 23021D   23179.40042312 -.00000274  00000-0 -15195-4 0  9996,2 55631  69.9985 168.6290 0003833 267.0066  93.0654 14.98328125 20411,6950.199,96.107,574.728,569.4,0.0
55631.0,STARLINK-5558,PAYLOAD,2023-06-29 09:38:37,14.98332923,0.0003828,69.9985,166.1041,267.4355,92.6366,1.2185e-05,5.2e-07,0.0,0 STARLINK-5558,1 55631U 23021D   23180.40181848  .00000052  00000-0  12185-4 0  9994,2 55631  69.9985 166.1041 0003828 267.4355  92.6366 14.98332923 20569,6950.184,96.107,574.709,569.388,0.0
55631.0,STARLINK-5558,PAYLOAD,2023-06-30 16:05:10,14.98327897,0.000379,69.9986,162.906,267.2912,92.7813,-2.3938e-06,-1.22e-06,0.0,0 STARLINK-5558,1 55631U 23021D   23181.67026032 -.00000122  00000-0 -23938-5 0  9996,2 55631  69.9986 162.9060 0003790 267.2912  92.7813 14.98327897 20753,6950.199,96.107,574.699,569.43,0.0
55631.0,STARLINK-5558,PAYLOAD,2023-07-01 16:07:11,14.98327567,0.000371,69.9988,160.3813,267.0661,93.0073,-3.9567e-05,-5.65e-06,0.0,0 STARLINK-5558,1 55631U 23021D   23182.67166313 -.00000565  00000-0 -39567-4 0  9999,2 55631  69.9988 160.3813 0003710 267.0661  93.0073 14.98327567 20907,6950.2,96.107,574.644,569.487,0.0
55631.0,STARLINK-5558,PAYLOAD,2023-07-03 01:46:00,14.98329997,0.0003734,69.9988,156.8467,266.9327,93.1405,8.1321e-05,8.77e-06,0.0,0 STARLINK-5558,1 55631U 23021D   23184.07361772  .00000877  00000-0  81321-4 0  9990,2 55631  69.9988 156.8467 0003734 266.9327  93.1405 14.98329997 21118,6950.193,96.107,574.653,569.463,0.0
55631.0,STARLINK-5558,PAYLOAD,2023-07-04 03:24:09,14.98328257,0.0003648,69.9989,154.1534,266.3616,93.7126,-2.9326e-05,-4.43e-06,0.0,0 STARLINK-5558,1 55631U 23021D   23185.14178114 -.00000443  00000-0 -29326-4 0  9993,2 55631  69.9989 154.1534 0003648 266.3616  93.7126 14.98328257 21275,6950.198,96.107,574.599,569.528,0.0
55631.0,STARLINK-5558,PAYLOAD,2023-07-05 08:14:34,14.9833365,0.0003503,69.9992,151.1243,264.7594,95.3165,-1.9609e-05,-3.27e-06,0.0,0 STARLINK-5558,1 55631U 23021D   23186.34345636 -.00000327  00000-0 -19609-4 0  9995,2 55631  69.9992 151.1243 0003503 264.7594  95.3165 14.98333650 21454,6950.182,96.107,574.481,569.612,0.0
55631.0,STARLINK-5558,PAYLOAD,2023-07-06 08:16:35,14.98331044,0.0003479,69.9991,148.5988,266.7028,93.3733,5.6725e-05,5.84e-06,0.0,0 STARLINK-5558,1 55631U 23021D   23187.34485498  .00000584  00000-0  56725-4 0  9990,2 55631  69.9991 148.5988 0003479 266.7028  93.3733 14.98331044 21606,6950.19,96.107,574.473,569.637,0.0
55631.0,STARLINK-5558,PAYLOAD,2023-07-07 14:43:08,14.98330513,0.0003582,69.999,145.4003,266.7466,93.3283,-2.9626e-05,-4.47e-06,0.0,0 STARLINK-5558,1 55631U 23021D   23188.61329659 -.00000447  00000-0 -29626-4 0  9997,2 55631  69.9990 145.4003 0003582 266.7466  93.3283 14.98330513 21790,6950.191,96.107,574.546,569.567,0.0
55631.0,STARLINK-5558,PAYLOAD,2023-07-08 14:45:09,14.98327196,0.0003432,69.9989,142.8756,270.3426,89.7339,5.7606e-05,5.94e-06,0.0,0 STARLINK-5558,1 55631U 23021D   23189.61469707  .00000594  00000-0  57606-4 0  9997,2 55631  69.9989 142.8756 0003432 270.3426  89.7339 14.98327196 21946,6950.202,96.107,574.452,569.681,0.0
55631.0,STARLINK-5558,PAYLOAD,2023-07-10 03:36:15,14.98330354,0.0003406,69.9992,139.0047,268.1526,91.9243,1.9079e-05,1.35e-06,0.0,0 STARLINK-5558,1 55631U 23021D   23191.15017630  .00000135  00000-0  19079-4 0  9996,2 55631  69.9992 139.0047 0003406 268.1526  91.9243 14.98330354 22173,6950.192,96.107,574.424,569.69,0.0
55631.0,STARLINK-5558,PAYLOAD,2023-07-11 06:50:31,14.98333524,0.000333,69.9994,136.1434,267.7611,92.3167,5.913e-05,6.13e-06,0.0,0 STARLINK-5558,1 55631U 23021D   23192.28509223  .00000613  00000-0  59130-4 0  9998,2 55631  69.9994 136.1434 0003330 267.7611  92.3167 14.98333524 22340,6950.182,96.107,574.361,569.733,0.0
55631.0,STARLINK-5558,PAYLOAD,2023-07-12 13:17:05,14.98333267,0.0003202,69.9998,132.9455,267.8401,92.2391,2.4918e-05,2.04e-06,0.0,0 STARLINK-5558,1 55631U 23021D   23193.55353097  .00000204  00000-0  24918-4 0  9997,2 55631  69.9998 132.9455 0003202 267.8401  92.2391 14.98333267 22530,6950.183,96.107,574.273,569.822,0.0
55631.0,STARLINK-5558,PAYLOAD,2023-07-13 05:18:25,14.98330757,0.0003291,69.9994,131.2625,271.7833,88.2949,-1.8567e-05,-3.15e-06,0.0,0 STARLINK-5558,1 55631U 23021D   23194.22113419 -.00000315  00000-0 -18567-4 0  9992,2 55631  69.9994 131.2625 0003291 271.7833  88.2949 14.98330757 22634,6950.191,96.107,574.343,569.768,0.0
55631.0,STARLINK-5558,PAYLOAD,2023-07-14 05:20:27,14.983275,0.0003072,69.9997,128.7366,265.943,94.1378,-1.9469e-05,-3.25e-06,0.0,0 STARLINK-5558,1 55631U 23021D   23195.22253790 -.00000325  00000-0 -19469-4 0  9993,2 55631  69.9997 128.7366 0003072 265.9430  94.1378 14.98327500 22785,6950.201,96.107,574.201,569.931,0.0
55631.0,STARLINK-5558,PAYLOAD,2023-07-15 02:10:11,14.98332538,0.0003197,69.9995,126.5489,269.3896,90.6896,0.00013832,1.558e-05,0.0,0 STARLINK-5558,1 55631U 23021D   23196.09041000  .00001558  00000-0  13832-3 0  9992,2 55631  69.9995 126.5489 0003197 269.3896  90.6896 14.98332538 22915,6950.185,96.107,574.272,569.828,0.0
55631.0,STARLINK-5558,PAYLOAD,2023-07-15 18:11:32,14.98326971,0.0002946,70.0001,124.8671,264.1176,95.9647,1.1631e-05,4.6e-07,0.0,0 STARLINK-5558,1 55631U 23021D   23196.75801624  .00000046  00000-0  11631-4 0  9998,2 55631  70.0001 124.8671 0002946 264.1176  95.9647 14.98326971 23013,6950.202,96.107,574.115,570.02,0.0
55631.0,STARLINK-5558,PAYLOAD,2023-07-16 11:49:00,14.9836915,0.0003185,70.0,123.014,273.4816,86.5979,-0.00074534,-8.984e-05,0.0,0 STARLINK-5558,1 55631U 23021D   23197.49236679 -.00008984  00000-0 -74534-3 0  9993,2 55631  70.0000 123.0140 0003185 273.4816  86.5979 14.98369150 23126,6950.072,96.104,574.15,569.723,0.0
55631.0,STARLINK-5558,PAYLOAD,2023-07-16 23:01:57,14.98336901,0.0002895,70.0,121.8357,269.4608,90.6219,-0.00014378,-1.808e-05,0.0,0 STARLINK-5558,1 55631U 23021D   23197.95969545 -.00001808  00000-0 -14378-3 0  9997,2 55631  70.0000 121.8357 0002895 269.4608  90.6219 14.98336901 23191,6950.172,96.107,574.049,570.024,0.0
